IRIDIUM 150             
1 43257U 18030J   25167.49133563  .00000008  00000+0 -40450-5 0  9994
2 43257  86.3961  83.3564 0002222  76.8652 283.2792 14.34217668377762
IRIDIUM 143             
1 43258U 18030K   25166.77462277  .00000048  00000+0  99728-5 0  9997
2 43258  86.3964  83.7343 0002355  72.3378 287.8075 14.34217684377579
IRIDIUM 161             
1 43478U 18047C   25166.54758875  .00000328  00000+0  91423-4 0  9990
2 43478  86.4496 241.6228 0002400 100.1598 259.9874 14.43284575372256
IRIDIUM 152             
1 43479U 18047D   25167.44502590 -.00000151  00000+0 -60965-4 0  9995
2 43479  86.3969 241.1081 0002208  96.3629 263.7819 14.34217238370072
IRIDIUM 147             
1 43480U 18047E   25167.17229362  .00000019  00000+0 -29956-6 0  9999
2 43480  86.3973 241.2210 0002072  97.1129 263.0302 14.34217999370026
IRIDIUM 110             
1 43481U 18047F   25166.48095007  .00000226  00000+0  73742-4 0  9999
2 43481  86.3975 241.5923 0002437 106.0701 254.0763 14.34219558369914
IRIDIUM 162             
1 43482U 18047G   25167.16526777  .00000320  00000+0  88993-4 0  9998
2 43482  86.4494 241.2601 0002601 100.0314 260.1180 14.43284943372330
IRIDIUM 160             
1 43569U 18061A   25167.05470471  .00000049  00000+0  10534-4 0  9991
2 43569  86.3989 209.7526 0002374  97.9646 262.1819 14.34217870360892
